{"type": "FeatureCollection", "features": [ {"type": "Feature", "properties": {"norad_id": 34117, "name": "COSMOS 2251 DEB", "group": "cosmos-2251-debris", "lat": 61.08611059849953, "lon": 1.0390660653363748, "alt_km": 715.6589873265884, "timestamp": "2025-12-20T07:33:51.206762+00:00", "meta": {"OBJECT_NAME": "COSMOS 2251 DEB", "OBJECT_ID": "1993-036KN", "EPOCH": "2025-12-19T16:15:29.980512", "MEAN_MOTION": 14.4003705, "ECCENTRICITY": 0.00548116, "INCLINATION": 74.0395, "RA_OF_ASC_NODE": 331.0102, "ARG_OF_PERICENTER": 45.409, "MEAN_ANOMALY": 315.1518, "EPHEMERIS_TYPE": 0, "CLASSIFICATION_TYPE": "U", "NORAD_CAT_ID": 34117, "ELEMENT_SET_NO": 999, "REV_AT_EPOCH": 88223, "BSTAR": 0.00047522298, "MEAN_MOTION_DOT": 1.499e-05, "MEAN_MOTION_DDOT": 0}, "tle": {"line1": "1 34117U 93036KN  25353.67743033  .00001499  00000+0  47522-3 0  9993", "line2": "2 34117  74.0395 331.0102 0054811  45.4090 315.1518 14.40037050882238"}}, "geometry": {"type": "Point", "coordinates": [1.0390660653363748, 61.08611059849953]}}, {"type": "Feature", "properties": {"norad_id": 34118, "name": "COSMOS 2251 DEB", "group": "cosmos-2251-debris", "lat": 9.627923297470069, "lon": 51.17337271891059, "alt_km": 598.5956779863391, "timestamp": "2025-12-20T07:33:51.206772+00:00", "meta": {"OBJECT_NAME": "COSMOS 2251 DEB", "OBJECT_ID": "1993-036KP", "EPOCH": "2025-12-18T19:47:13.217856", "MEAN_MOTION": 14.94148873, "ECCENTRICITY": 0.00600655, "INCLINATION": 73.9521, "RA_OF_ASC_NODE": 236.9887, "ARG_OF_PERICENTER": 65.7247, "MEAN_ANOMALY": 8.2872, "EPHEMERIS_TYPE": 0, "CLASSIFICATION_TYPE": "U", "NORAD_CAT_ID": 34118, "ELEMENT_SET_NO": 999, "REV_AT_EPOCH": 89267, "BSTAR": 0.0011183228, "MEAN_MOTION_DOT": 0.00012385, "MEAN_MOTION_DDOT": 0}, "tle": {"line1": "1 34118U 93036KP  25352.82445854  .00012385  00000+0  11183-2 0  9999", "line2": "2 34118  73.9521 236.9887 0060065  65.7247   8.2872 14.94148873892675"}}, "geometry": {"type": "Point", "coordinates": [51.17337271891059, 9.627923297470069]}}, {"type": "Feature", "properties": {"norad_id": 34120, "name": "COSMOS 2251 DEB", "group": "cosmos-2251-debris", "lat": 37.87762312729581, "lon": 10.194685470127933, "alt_km": 940.8307005728866, "timestamp": "2025-12-20T07:33:51.206783+00:00", "meta": {"OBJECT_NAME": "COSMOS 2251 DEB", "OBJECT_ID": "1993-036KR", "EPOCH": "2025-12-19T22:50:01.195872", "MEAN_MOTION": 13.98691453, "ECCENTRICITY": 0.01822667, "INCLINATION": 73.9904, "RA_OF_ASC_NODE": 203.7291, "ARG_OF_PERICENTER": 29.8104, "MEAN_ANOMALY": 77.4545, "EPHEMERIS_TYPE": 0, "CLASSIFICATION_TYPE": "U", "NORAD_CAT_ID": 34120, "ELEMENT_SET_NO": 999, "REV_AT_EPOCH": 86081, "BSTAR": 0.00024972733, "MEAN_MOTION_DOT": 3.9e-06, "MEAN_MOTION_DDOT": 0}, "tle": {"line1": "1 34120U 93036KR  25353.95140273  .00000390  00000+0  24973-3 0  9999", "line2": "2 34120  73.9904 203.7291 0182266  29.8104  77.4545 13.98691453860811"}}, "geometry": {"type": "Point", "coordinates": [10.194685470127933, 37.87762312729581]}}, {"type": "Feature", "properties": {"norad_id": 34121, "name": "COSMOS 2251 DEB", "group": "cosmos-2251-debris", "lat": 14.49574630958983, "lon": -100.06721837168396, "alt_km": 1015.6030851240548, "timestamp": "2025-12-20T07:33:51.206793+00:00", "meta": {"OBJECT_NAME": "COSMOS 2251 DEB", "OBJECT_ID": "1993-036KS", "EPOCH": "2025-12-19T10:25:18.411168", "MEAN_MOTION": 13.91951997, "ECCENTRICITY": 0.0240674, "INCLINATION": 73.9924, "RA_OF_ASC_NODE": 85.6981, "ARG_OF_PERICENTER": 289.7383, "MEAN_ANOMALY": 144.6962, "EPHEMERIS_TYPE": 0, "CLASSIFICATION_TYPE": "U", "NORAD_CAT_ID": 34121, "ELEMENT_SET_NO": 999, "REV_AT_EPOCH": 85218, "BSTAR": 0.00088007, "MEAN_MOTION_DOT": 1.397e-05, "MEAN_MOTION_DDOT": 0}, "tle": {"line1": "1 34121U 93036KS  25353.43424087  .00001397  00000+0  88007-3 0  9997", "line2": "2 34121  73.9924  85.6981 0240674 289.7383 144.6962 13.91951997852187"}}, "geometry": {"type": "Point", "coordinates": [-100.06721837168396, 14.49574630958983]}}, {"type": "Feature", "properties": {"norad_id": 34122, "name": "COSMOS 2251 DEB", "group": "cosmos-2251-debris", "lat": -64.30047870567064, "lon": -39.442314340710865, "alt_km": 702.7486534580275, "timestamp": "2025-12-20T07:33:51.206803+00:00", "meta": {"OBJECT_NAME": "COSMOS 2251 DEB", "OBJECT_ID": "1993-036KT", "EPOCH": "2025-12-19T17:59:46.157856", "MEAN_MOTION": 14.65126194, "ECCENTRICITY": 0.0084721, "INCLINATION": 74.0362, "RA_OF_ASC_NODE": 105.1466, "ARG_OF_PERICENTER": 0.0124, "MEAN_ANOMALY": 149.8471, "EPHEMERIS_TYPE": 0, "CLASSIFICATION_TYPE": "U", "NORAD_CAT_ID": 34122, "ELEMENT_SET_NO": 999, "REV_AT_EPOCH": 88787, "BSTAR": 0.00069383656, "MEAN_MOTION_DOT": 3.9e-05, "MEAN_MOTION_DDOT": 0}, "tle": {"line1": "1 34122U 93036KT  25353.74983979  .00003900  00000+0  69384-3 0  9991", "line2": "2 34122  74.0362 105.1466 0084721   0.0124 149.8471 14.65126194887879"}}, "geometry": {"type": "Point", "coordinates": [-39.442314340710865, -64.30047870567064]}}, {"type": "Feature", "properties": {"norad_id": 34127, "name": "COSMOS 2251 DEB", "group": "cosmos-2251-debris", "lat": -29.51459956436237, "lon": 20.936609625617198, "alt_km": 806.2616784760366, "timestamp": "2025-12-20T07:33:51.206813+00:00", "meta": {"OBJECT_NAME": "COSMOS 2251 DEB", "OBJECT_ID": "1993-036KY", "EPOCH": "2025-12-19T03:29:03.083712", "MEAN_MOTION": 14.31601288, "ECCENTRICITY": 0.01149346, "INCLINATION": 74.1792, "RA_OF_ASC_NODE": 32.2872, "ARG_OF_PERICENTER": 231.0589, "MEAN_ANOMALY": 189.4593, "EPHEMERIS_TYPE": 0, "CLASSIFICATION_TYPE": "U", "NORAD_CAT_ID": 34127, "ELEMENT_SET_NO": 999, "REV_AT_EPOCH": 86863, "BSTAR": 0.0012183219, "MEAN_MOTION_DOT": 3.463e-05, "MEAN_MOTION_DDOT": 0}, "tle": {"line1": "1 34127U 93036KY  25353.14517458  .00003463  00000+0  12183-2 0  9993", "line2": "2 34127  74.1792  32.2872 0114934 231.0589 189.4593 14.31601288868637"}}, "geometry": {"type": "Point", "coordinates": [20.936609625617198, -29.51459956436237]}}, {"type": "Feature", "properties": {"norad_id": 34128, "name": "COSMOS 2251 DEB", "group": "cosmos-2251-debris", "lat": -73.54773220533394, "lon": -155.07782909764617, "alt_km": 577.8857323236643, "timestamp": "2025-12-20T07:33:51.206823+00:00", "meta": {"OBJECT_NAME": "COSMOS 2251 DEB", "OBJECT_ID": "1993-036KZ", "EPOCH": "2025-12-19T22:40:48.288576", "MEAN_MOTION": 15.01424091, "ECCENTRICITY": 0.00260554, "INCLINATION": 73.9995, "RA_OF_ASC_NODE": 282.0151, "ARG_OF_PERICENTER": 32.713, "MEAN_ANOMALY": 41.4106, "EPHEMERIS_TYPE": 0, "CLASSIFICATION_TYPE": "U", "NORAD_CAT_ID": 34128, "ELEMENT_SET_NO": 999, "REV_AT_EPOCH": 89275, "BSTAR": 0.00095818519, "MEAN_MOTION_DOT": 0.00012441, "MEAN_MOTION_DDOT": 0}, "tle": {"line1": "1 34128U 93036KZ  25353.94500334  .00012441  00000+0  95819-3 0  9991", "line2": "2 34128  73.9995 282.0151 0026055  32.7130  41.4106 15.01424091892759"}}, "geometry": {"type": "Point", "coordinates": [-155.07782909764617, -73.54773220533394]}}, {"type": "Feature", "properties": {"norad_id": 34129, "name": "COSMOS 2251 DEB", "group": "cosmos-2251-debris", "lat": -34.82932993106082, "lon": 156.19221064080702, "alt_km": 671.392998289155, "timestamp": "2025-12-20T07:33:51.206833+00:00", "meta": {"OBJECT_NAME": "COSMOS 2251 DEB", "OBJECT_ID": "1993-036LA", "EPOCH": "2025-12-18T09:02:11.415264", "MEAN_MOTION": 14.75834585, "ECCENTRICITY": 0.00331651, "INCLINATION": 74.0348, "RA_OF_ASC_NODE": 328.4951, "ARG_OF_PERICENTER": 48.1918, "MEAN_ANOMALY": 312.208, "EPHEMERIS_TYPE": 0, "CLASSIFICATION_TYPE": "U", "NORAD_CAT_ID": 34129, "ELEMENT_SET_NO": 999, "REV_AT_EPOCH": 61381, "BSTAR": 0.0011762776, "MEAN_MOTION_DOT": 8.117e-05, "MEAN_MOTION_DDOT": 0}, "tle": {"line1": "1 34129U 93036LA  25352.37652101  .00008117  00000+0  11763-2 0  9998", "line2": "2 34129  74.0348 328.4951 0033165  48.1918 312.2080 14.75834585613813"}}, "geometry": {"type": "Point", "coordinates": [156.19221064080702, -34.82932993106082]}}, {"type": "Feature", "properties": {"norad_id": 34136, "name": "COSMOS 2251 DEB", "group": "cosmos-2251-debris", "lat": 49.49277704677748, "lon": -171.90666146359573, "alt_km": 568.2210099346048, "timestamp": "2025-12-20T07:33:51.206843+00:00", "meta": {"OBJECT_NAME": "COSMOS 2251 DEB", "OBJECT_ID": "1993-036LH", "EPOCH": "2025-12-19T20:25:23.205792", "MEAN_MOTION": 14.80123226, "ECCENTRICITY": 0.0085269, "INCLINATION": 74.02, "RA_OF_ASC_NODE": 28.6074, "ARG_OF_PERICENTER": 149.6513, "MEAN_ANOMALY": 25.858, "EPHEMERIS_TYPE": 0, "CLASSIFICATION_TYPE": "U", "NORAD_CAT_ID": 34136, "ELEMENT_SET_NO": 999, "REV_AT_EPOCH": 90115, "BSTAR": 0.00025120644, "MEAN_MOTION_DOT": 1.991e-05, "MEAN_MOTION_DDOT": 0}, "tle": {"line1": "1 34136U 93036LH  25353.85096303  .00001991  00000+0  25121-3 0  9993", "line2": "2 34136  74.0200  28.6074 0085269 149.6513  25.8580 14.80123226901151"}}, "geometry": {"type": "Point", "coordinates": [-171.90666146359573, 49.49277704677748]}}, {"type": "Feature", "properties": {"norad_id": 34139, "name": "COSMOS 2251 DEB", "group": "cosmos-2251-debris", "lat": -2.363075297334492, "lon": -121.05271676221165, "alt_km": 678.7651674562039, "timestamp": "2025-12-20T07:33:51.206854+00:00", "meta": {"OBJECT_NAME": "COSMOS 2251 DEB", "OBJECT_ID": "1993-036LL", "EPOCH": "2025-12-18T16:11:13.051968", "MEAN_MOTION": 14.59140035, "ECCENTRICITY": 0.00425473, "INCLINATION": 74.0309, "RA_OF_ASC_NODE": 242.7506, "ARG_OF_PERICENTER": 312.858, "MEAN_ANOMALY": 69.3893, "EPHEMERIS_TYPE": 0, "CLASSIFICATION_TYPE": "U", "NORAD_CAT_ID": 34139, "ELEMENT_SET_NO": 999, "REV_AT_EPOCH": 88236, "BSTAR": 0.00099611109, "MEAN_MOTION_DOT": 4.723e-05, "MEAN_MOTION_DDOT": 0}, "tle": {"line1": "1 34139U 93036LL  25352.67445662  .00004723  00000+0  99611-3 0  9992", "line2": "2 34139  74.0309 242.7506 0042547 312.8580  69.3893 14.59140035882367"}}, "geometry": {"type": "Point", "coordinates": [-121.05271676221165, -2.363075297334492]}}]}